{"type": "FeatureCollection", "features": [{"type": "Feature", "properties": {"norad_id": 28890, "name": "BEIJING 1", "group": "dmc", "lat": 17.590434905158123, "lon": 109.65033328573975, "alt_km": 689.5359636206986, "timestamp": "2025-12-10T18:56:59.728581+00:00", "meta": {"OBJECT_NAME": "BEIJING 1", "OBJECT_ID": "2005-043A", "EPOCH": "2025-12-10T12:18:16.509312", "MEAN_MOTION": 14.63362202, "ECCENTRICITY": 0.0015187, "INCLINATION": 98.2657, "RA_OF_ASC_NODE": 112.0144, "ARG_OF_PERICENTER": 147.8701, "MEAN_ANOMALY": 212.3429, "EPHEMERIS_TYPE": 0, "CLASSIFICATION_TYPE": "U", "NORAD_CAT_ID": 28890, "ELEMENT_SET_NO": 999, "REV_AT_EPOCH": 7305, "BSTAR": 0.00010417, "MEAN_MOTION_DOT": 4.9e-06, "MEAN_MOTION_DDOT": 0}, "tle": {"line1": "1 28890U 05043A   25344.51269108  .00000490  00000+0  10417-3 0  9997", "line2": "2 28890  98.2657 112.0144 0015187 147.8701 212.3429 14.63362202 73056"}}, "geometry": {"type": "Point", "coordinates": [109.65033328573975, 17.590434905158123]}}, {"type": "Feature", "properties": {"norad_id": 33320, "name": "HUANJING 1A (HJ-1A)", "group": "dmc", "lat": -80.84201277134008, "lon": 96.63516099504288, "alt_km": 636.1850591943276, "timestamp": "2025-12-10T18:56:59.728604+00:00", "meta": {"OBJECT_NAME": "HUANJING 1A (HJ-1A)", "OBJECT_ID": "2008-041A", "EPOCH": "2025-12-10T12:54:07.853760", "MEAN_MOTION": 14.83382865, "ECCENTRICITY": 0.0020336, "INCLINATION": 97.6544, "RA_OF_ASC_NODE": 332.9279, "ARG_OF_PERICENTER": 41.4254, "MEAN_ANOMALY": 318.8498, "EPHEMERIS_TYPE": 0, "CLASSIFICATION_TYPE": "U", "NORAD_CAT_ID": 33320, "ELEMENT_SET_NO": 999, "REV_AT_EPOCH": 93043, "BSTAR": 0.00025642, "MEAN_MOTION_DOT": 2.059e-05, "MEAN_MOTION_DDOT": 0}, "tle": {"line1": "1 33320U 08041A   25344.53759090  .00002059  00000+0  25642-3 0  9997", "line2": "2 33320  97.6544 332.9279 0020336  41.4254 318.8498 14.83382865930435"}}, "geometry": {"type": "Point", "coordinates": [96.63516099504288, -80.84201277134008]}}, {"type": "Feature", "properties": {"norad_id": 33321, "name": "HUANJING 1B (HJ-1B)", "group": "dmc", "lat": 48.765801177006146, "lon": 165.6806252629976, "alt_km": 598.3979163187769, "timestamp": "2025-12-10T18:56:59.728618+00:00", "meta": {"OBJECT_NAME": "HUANJING 1B (HJ-1B)", "OBJECT_ID": "2008-041B", "EPOCH": "2025-12-10T11:53:18.038688", "MEAN_MOTION": 14.82812501, "ECCENTRICITY": 0.0038291, "INCLINATION": 97.6401, "RA_OF_ASC_NODE": 336.5901, "ARG_OF_PERICENTER": 82.6677, "MEAN_ANOMALY": 277.8887, "EPHEMERIS_TYPE": 0, "CLASSIFICATION_TYPE": "U", "NORAD_CAT_ID": 33321, "ELEMENT_SET_NO": 999, "REV_AT_EPOCH": 93044, "BSTAR": 0.00025179, "MEAN_MOTION_DOT": 2.011e-05, "MEAN_MOTION_DDOT": 0}, "tle": {"line1": "1 33321U 08041B   25344.49534767  .00002011  00000+0  25179-3 0  9998", "line2": "2 33321  97.6401 336.5901 0038291  82.6677 277.8887 14.82812501930446"}}, "geometry": {"type": "Point", "coordinates": [165.6806252629976, 48.765801177006146]}}, {"type": "Feature", "properties": {"norad_id": 33446, "name": "YAOGAN-4", "group": "dmc", "lat": 42.35777107116174, "lon": -92.38239993478848, "alt_km": 614.6076950463612, "timestamp": "2025-12-10T18:56:59.728630+00:00", "meta": {"OBJECT_NAME": "YAOGAN-4", "OBJECT_ID": "2008-061A", "EPOCH": "2025-12-10T09:02:22.074432", "MEAN_MOTION": 14.82671071, "ECCENTRICITY": 0.0013772, "INCLINATION": 97.918, "RA_OF_ASC_NODE": 274.4991, "ARG_OF_PERICENTER": 331.4072, "MEAN_ANOMALY": 28.6385, "EPHEMERIS_TYPE": 0, "CLASSIFICATION_TYPE": "U", "NORAD_CAT_ID": 33446, "ELEMENT_SET_NO": 999, "REV_AT_EPOCH": 91768, "BSTAR": 0.0003126, "MEAN_MOTION_DOT": 2.471e-05, "MEAN_MOTION_DDOT": 0}, "tle": {"line1": "1 33446U 08061A   25344.37664438  .00002471  00000+0  31260-3 0  9992", "line2": "2 33446  97.9180 274.4991 0013772 331.4072  28.6385 14.82671071917682"}}, "geometry": {"type": "Point", "coordinates": [-92.38239993478848, 42.35777107116174]}}, {"type": "Feature", "properties": {"norad_id": 35681, "name": "DEIMOS-1", "group": "dmc", "lat": -46.37507501230786, "lon": -42.6933100419701, "alt_km": 653.6923184482112, "timestamp": "2025-12-10T18:56:59.728656+00:00", "meta": {"OBJECT_NAME": "DEIMOS-1", "OBJECT_ID": "2009-041A", "EPOCH": "2025-12-10T11:24:43.542144", "MEAN_MOTION": 14.74946165, "ECCENTRICITY": 0.0002742, "INCLINATION": 97.7148, "RA_OF_ASC_NODE": 145.1841, "ARG_OF_PERICENTER": 83.0149, "MEAN_ANOMALY": 277.1373, "EPHEMERIS_TYPE": 0, "CLASSIFICATION_TYPE": "U", "NORAD_CAT_ID": 35681, "ELEMENT_SET_NO": 999, "REV_AT_EPOCH": 87906, "BSTAR": 0.00014099, "MEAN_MOTION_DOT": 9e-06, "MEAN_MOTION_DDOT": 0}, "tle": {"line1": "1 35681U 09041A   25344.47550396  .00000900  00000+0  14099-3 0  9998", "line2": "2 35681  97.7148 145.1841 0002742  83.0149 277.1373 14.74946165879062"}}, "geometry": {"type": "Point", "coordinates": [-42.6933100419701, -46.37507501230786]}}, {"type": "Feature", "properties": {"norad_id": 35683, "name": "UK-DMC 2", "group": "dmc", "lat": -56.43347066515527, "lon": -72.26305110207464, "alt_km": 651.0505372350608, "timestamp": "2025-12-10T18:56:59.728669+00:00", "meta": {"OBJECT_NAME": "UK-DMC 2", "OBJECT_ID": "2009-041C", "EPOCH": "2025-12-10T12:59:45.772800", "MEAN_MOTION": 14.75613974, "ECCENTRICITY": 0.0001404, "INCLINATION": 97.8564, "RA_OF_ASC_NODE": 119.5063, "ARG_OF_PERICENTER": 96.5399, "MEAN_ANOMALY": 263.597, "EPHEMERIS_TYPE": 0, "CLASSIFICATION_TYPE": "U", "NORAD_CAT_ID": 35683, "ELEMENT_SET_NO": 999, "REV_AT_EPOCH": 87874, "BSTAR": 0.00025317, "MEAN_MOTION_DOT": 1.678e-05, "MEAN_MOTION_DDOT": 0}, "tle": {"line1": "1 35683U 09041C   25344.54150200  .00001678  00000+0  25317-3 0  9996", "line2": "2 35683  97.8564 119.5063 0001404  96.5399 263.5970 14.75613974878744"}}, "geometry": {"type": "Point", "coordinates": [-72.26305110207464, -56.43347066515527]}}, {"type": "Feature", "properties": {"norad_id": 40715, "name": "DMC3-FM1", "group": "dmc", "lat": -37.01400041087882, "lon": 26.22197605060833, "alt_km": 619.9136160346543, "timestamp": "2025-12-10T18:56:59.728681+00:00", "meta": {"OBJECT_NAME": "DMC3-FM1", "OBJECT_ID": "2015-032A", "EPOCH": "2025-12-10T11:30:27.107424", "MEAN_MOTION": 14.85434962, "ECCENTRICITY": 0.0004801, "INCLINATION": 97.669, "RA_OF_ASC_NODE": 211.754, "ARG_OF_PERICENTER": 331.024, "MEAN_ANOMALY": 29.0708, "EPHEMERIS_TYPE": 0, "CLASSIFICATION_TYPE": "U", "NORAD_CAT_ID": 40715, "ELEMENT_SET_NO": 999, "REV_AT_EPOCH": 56189, "BSTAR": 0.00015318, "MEAN_MOTION_DOT": 1.269e-05, "MEAN_MOTION_DDOT": 0}, "tle": {"line1": "1 40715U 15032A   25344.47948041  .00001269  00000+0  15318-3 0  9991", "line2": "2 40715  97.6690 211.7540 0004801 331.0240  29.0708 14.85434962561893"}}, "geometry": {"type": "Point", "coordinates": [26.22197605060833, -37.01400041087882]}}, {"type": "Feature", "properties": {"norad_id": 40716, "name": "DMC3-FM2", "group": "dmc", "lat": 79.5050828323004, "lon": 80.20824136300428, "alt_km": 606.9809219360423, "timestamp": "2025-12-10T18:56:59.728691+00:00", "meta": {"OBJECT_NAME": "DMC3-FM2", "OBJECT_ID": "2015-032B", "EPOCH": "2025-12-10T13:39:51.120288", "MEAN_MOTION": 14.85433117, "ECCENTRICITY": 0.0005507, "INCLINATION": 97.6747, "RA_OF_ASC_NODE": 213.2829, "ARG_OF_PERICENTER": 334.5087, "MEAN_ANOMALY": 25.5857, "EPHEMERIS_TYPE": 0, "CLASSIFICATION_TYPE": "U", "NORAD_CAT_ID": 40716, "ELEMENT_SET_NO": 999, "REV_AT_EPOCH": 56190, "BSTAR": 5.6887e-05, "MEAN_MOTION_DOT": 4.39e-06, "MEAN_MOTION_DDOT": 0}, "tle": {"line1": "1 40716U 15032B   25344.56934167  .00000439  00000+0  56887-4 0  9991", "line2": "2 40716  97.6747 213.2829 0005507 334.5087  25.5857 14.85433117561904"}}, "geometry": {"type": "Point", "coordinates": [80.20824136300428, 79.5050828323004]}}, {"type": "Feature", "properties": {"norad_id": 40717, "name": "DMC3-FM3", "group": "dmc", "lat": -18.317660097457587, "lon": -142.31283211508784, "alt_km": 613.9750507136068, "timestamp": "2025-12-10T18:56:59.728701+00:00", "meta": {"OBJECT_NAME": "DMC3-FM3", "OBJECT_ID": "2015-032C", "EPOCH": "2025-12-10T12:33:58.014432", "MEAN_MOTION": 14.85423829, "ECCENTRICITY": 0.0004828, "INCLINATION": 97.6801, "RA_OF_ASC_NODE": 214.8701, "ARG_OF_PERICENTER": 336.2711, "MEAN_ANOMALY": 23.8281, "EPHEMERIS_TYPE": 0, "CLASSIFICATION_TYPE": "U", "NORAD_CAT_ID": 40717, "ELEMENT_SET_NO": 999, "REV_AT_EPOCH": 56190, "BSTAR": 0.0001026, "MEAN_MOTION_DOT": 8.32e-06, "MEAN_MOTION_DDOT": 0}, "tle": {"line1": "1 40717U 15032C   25344.52358813  .00000832  00000+0  10260-3 0  9997", "line2": "2 40717  97.6801 214.8701 0004828 336.2711  23.8281 14.85423829561901"}}, "geometry": {"type": "Point", "coordinates": [-142.31283211508784, -18.317660097457587]}}]}